[{"OBJECT_NAME":"STARLINK-32094","OBJECT_ID":"2024-086Q","EPOCH":"2026-03-09T09:29:56.367456","MEAN_MOTION":15.27575061,"ECCENTRICITY":8.278e-5,"INCLINATION":43.0013,"RA_OF_ASC_NODE":61.8558,"ARG_OF_PERICENTER":278.2145,"MEAN_ANOMALY":81.8613,"EPHEMERIS_TYPE":0,"CLASSIFICATION_TYPE":"U","NORAD_CAT_ID":59696,"ELEMENT_SET_NO":999,"REV_AT_EPOCH":10406,"BSTAR":-3.5418961e-5,"MEAN_MOTION_DOT":-1.236e-5,"MEAN_MOTION_DDOT":0},{"OBJECT_NAME":"COSMOS 1975","OBJECT_ID":"1988-093A","EPOCH":"2026-03-09T14:15:08.474112","MEAN_MOTION":15.28069249,"ECCENTRICITY":0.0012117,"INCLINATION":82.5181,"RA_OF_ASC_NODE":117.7814,"ARG_OF_PERICENTER":163.8427,"MEAN_ANOMALY":196.3201,"EPHEMERIS_TYPE":0,"CLASSIFICATION_TYPE":"U","NORAD_CAT_ID":19573,"ELEMENT_SET_NO":999,"REV_AT_EPOCH":1939,"BSTAR":0.0002787,"MEAN_MOTION_DOT":7.676e-5,"MEAN_MOTION_DDOT":0}]
